ONEWEB-0720             
1 55835U 23029AR  25332.13319726  .00000092  00000+0  19698-3 0  9995
2 55835  87.9195 344.9939 0002167  88.6888 271.4492 13.19723910132326
ONEWEB-0537             
1 56046U 23043A   25332.10664315  .00000005  00000+0 -20187-4 0  9991
2 56046  87.9034 268.8115 0001667  71.8093 288.3220 13.16593409132500
ONEWEB-0538             
1 56047U 23043B   25332.10030891  .00000055  00000+0  10960-3 0  9999
2 56047  87.9033 268.8177 0001959  68.2944 291.8395 13.16594700132515
ONEWEB-0546             
1 56048U 23043C   25332.08765314  .00000063  00000+0  12991-3 0  9997
2 56048  87.9046 268.8101 0001223  64.4436 295.6821 13.16594757132502
ONEWEB-0547             
1 56049U 23043D   25332.12353766  .00000101  00000+0  21209-3 0  9992
2 56049  87.9206 284.0770 0002007  77.7355 282.4003 13.21823658131664
ONEWEB-0548             
1 56050U 23043E   25332.11216424 -.00000337  00000+0 -91601-3 0  9998
2 56050  87.9025 268.8145 0001865  91.9947 268.1398 13.16594426132501
ONEWEB-0549             
1 56051U 23043F   25332.11613247  .00000115  00000+0  24604-3 0  9994
2 56051  87.9203 284.0932 0002104  75.2790 284.8577 13.21823830131662
ONEWEB-0550             
1 56052U 23043G   25332.10296735  .00000062  00000+0  11893-3 0  9990
2 56052  87.9204 284.0906 0001838  85.3346 274.7998 13.21824731131663
ONEWEB-0551             
1 56053U 23043H   25332.21177756  .00000031  00000+0  47336-4 0  9992
2 56053  87.8977 299.3363 0002044  80.9320 279.2041 13.15547925129979
ONEWEB-0552             
1 56054U 23043J   25331.87095022  .00000077  00000+0  15541-3 0  9991
2 56054  87.9203 284.1455 0002153  80.6282 279.5095 13.21824950131633
ONEWEB-0553             
1 56055U 23043K   25332.09397120 -.00000008  00000+0 -54556-4 0  9997
2 56055  87.9035 268.8177 0001479  76.5189 283.6107 13.16593966132519
ONEWEB-0554             
1 56056U 23043L   25332.08131178  .00000035  00000+0  57318-4 0  9993
2 56056  87.9025 268.8363 0001758  85.6223 274.5108 13.16595561132496
ONEWEB-0555             
1 56057U 23043M   25331.89131698  .00000056  00000+0  11368-3 0  9996
2 56057  87.9034 268.8531 0001292  72.3491 287.7781 13.16593155132475
ONEWEB-0557             
1 56058U 23043N   25332.05756266  .00000116  00000+0  26931-3 0  9999
2 56058  87.9030 268.8333 0001314 122.1296 237.9963 13.16595197132493
ONEWEB-0558             
1 56059U 23043P   25332.16714230  .00000034  00000+0  51555-4 0  9997
2 56059  87.9203 284.0802 0002272  69.8355 290.3024 13.21826220131685
ONEWEB-0559             
1 56060U 23043Q   25332.15563773  .00000022  00000+0  22436-4 0  9995
2 56060  87.9204 284.0757 0002182  80.2394 279.8987 13.21826350131692
ONEWEB-0566             
1 56061U 23043R   25332.14903169 -.00000244  00000+0 -62247-3 0  9993
2 56061  87.9202 284.0747 0002229  75.5497 284.5885 13.21824568131670
