[{"OBJECT_NAME":"ONEWEB-0720","OBJECT_ID":"2023-029AR","EPOCH":"2025-11-28T03:11:48.243264","MEAN_MOTION":13.1972391,"ECCENTRICITY":0.0002167,"INCLINATION":87.9195,"RA_OF_ASC_NODE":344.9939,"ARG_OF_PERICENTER":88.6888,"MEAN_ANOMALY":271.4492,"EPHEMERIS_TYPE":0,"CLASSIFICATION_TYPE":"U","NORAD_CAT_ID":55835,"ELEMENT_SET_NO":999,"REV_AT_EPOCH":13232,"BSTAR":0.00019698,"MEAN_MOTION_DOT":9.2e-7,"MEAN_MOTION_DDOT":0},{"OBJECT_NAME":"ONEWEB-0537","OBJECT_ID":"2023-043A","EPOCH":"2025-11-28T02:33:33.968160","MEAN_MOTION":13.16593409,"ECCENTRICITY":0.0001667,"INCLINATION":87.9034,"RA_OF_ASC_NODE":268.8115,"ARG_OF_PERICENTER":71.8093,"MEAN_ANOMALY":288.322,"EPHEMERIS_TYPE":0,"CLASSIFICATION_TYPE":"U","NORAD_CAT_ID":56046,"ELEMENT_SET_NO":999,"REV_AT_EPOCH":13250,"BSTAR":-2.0187e-5,"MEAN_MOTION_DOT":5.0e-8,"MEAN_MOTION_DDOT":0},{"OBJECT_NAME":"ONEWEB-0538","OBJECT_ID":"2023-043B","EPOCH":"2025-11-28T02:24:26.689824","MEAN_MOTION":13.165947,"ECCENTRICITY":0.0001959,"INCLINATION":87.9033,"RA_OF_ASC_NODE":268.8177,"ARG_OF_PERICENTER":68.2944,"MEAN_ANOMALY":291.8395,"EPHEMERIS_TYPE":0,"CLASSIFICATION_TYPE":"U","NORAD_CAT_ID":56047,"ELEMENT_SET_NO":999,"REV_AT_EPOCH":13251,"BSTAR":0.0001096,"MEAN_MOTION_DOT":5.5e-7,"MEAN_MOTION_DDOT":0},{"OBJECT_NAME":"ONEWEB-0546","OBJECT_ID":"2023-043C","EPOCH":"2025-11-28T02:06:13.231296","MEAN_MOTION":13.16594757,"ECCENTRICITY":0.0001223,"INCLINATION":87.9046,"RA_OF_ASC_NODE":268.8101,"ARG_OF_PERICENTER":64.4436,"MEAN_ANOMALY":295.6821,"EPHEMERIS_TYPE":0,"CLASSIFICATION_TYPE":"U","NORAD_CAT_ID":56048,"ELEMENT_SET_NO":999,"REV_AT_EPOCH":13250,"BSTAR":0.00012991,"MEAN_MOTION_DOT":6.3e-7,"MEAN_MOTION_DDOT":0},{"OBJECT_NAME":"ONEWEB-0547","OBJECT_ID":"2023-043D","EPOCH":"2025-11-28T02:57:53.653824","MEAN_MOTION":13.21823658,"ECCENTRICITY":0.0002007,"INCLINATION":87.9206,"RA_OF_ASC_NODE":284.077,"ARG_OF_PERICENTER":77.7355,"MEAN_ANOMALY":282.4003,"EPHEMERIS_TYPE":0,"CLASSIFICATION_TYPE":"U","NORAD_CAT_ID":56049,"ELEMENT_SET_NO":999,"REV_AT_EPOCH":13166,"BSTAR":0.00021209,"MEAN_MOTION_DOT":1.01e-6,"MEAN_MOTION_DDOT":0},{"OBJECT_NAME":"ONEWEB-0548","OBJECT_ID":"2023-043E","EPOCH":"2025-11-28T02:41:30.990336","MEAN_MOTION":13.16594426,"ECCENTRICITY":0.0001865,"INCLINATION":87.9025,"RA_OF_ASC_NODE":268.8145,"ARG_OF_PERICENTER":91.9947,"MEAN_ANOMALY":268.1398,"EPHEMERIS_TYPE":0,"CLASSIFICATION_TYPE":"U","NORAD_CAT_ID":56050,"ELEMENT_SET_NO":999,"REV_AT_EPOCH":13250,"BSTAR":-0.00091601,"MEAN_MOTION_DOT":-3.37e-6,"MEAN_MOTION_DDOT":0},{"OBJECT_NAME":"ONEWEB-0549","OBJECT_ID":"2023-043F","EPOCH":"2025-11-28T02:47:13.845408","MEAN_MOTION":13.2182383,"ECCENTRICITY":0.0002104,"INCLINATION":87.9203,"RA_OF_ASC_NODE":284.0932,"ARG_OF_PERICENTER":75.279,"MEAN_ANOMALY":284.8577,"EPHEMERIS_TYPE":0,"CLASSIFICATION_TYPE":"U","NORAD_CAT_ID":56051,"ELEMENT_SET_NO":999,"REV_AT_EPOCH":13166,"BSTAR":0.00024604,"MEAN_MOTION_DOT":1.15e-6,"MEAN_MOTION_DDOT":0},{"OBJECT_NAME":"ONEWEB-0550","OBJECT_ID":"2023-043G","EPOCH":"2025-11-28T02:28:16.379040","MEAN_MOTION":13.21824731,"ECCENTRICITY":0.0001838,"INCLINATION":87.9204,"RA_OF_ASC_NODE":284.0906,"ARG_OF_PERICENTER":85.3346,"MEAN_ANOMALY":274.7998,"EPHEMERIS_TYPE":0,"CLASSIFICATION_TYPE":"U","NORAD_CAT_ID":56052,"ELEMENT_SET_NO":999,"REV_AT_EPOCH":13166,"BSTAR":0.00011893,"MEAN_MOTION_DOT":6.2e-7,"MEAN_MOTION_DDOT":0},{"OBJECT_NAME":"ONEWEB-0551","OBJECT_ID":"2023-043H","EPOCH":"2025-11-28T05:04:57.581184","MEAN_MOTION":13.15547925,"ECCENTRICITY":0.0002044,"INCLINATION":87.8977,"RA_OF_ASC_NODE":299.3363,"ARG_OF_PERICENTER":80.932,"MEAN_ANOMALY":279.2041,"EPHEMERIS_TYPE":0,"CLASSIFICATION_TYPE":"U","NORAD_CAT_ID":56053,"ELEMENT_SET_NO":999,"REV_AT_EPOCH":12997,"BSTAR":4.7336e-5,"MEAN_MOTION_DOT":3.1e-7,"MEAN_MOTION_DDOT":0},{"OBJECT_NAME":"ONEWEB-0552","OBJECT_ID":"2023-043J","EPOCH":"2025-11-27T20:54:10.099008","MEAN_MOTION":13.2182495,"ECCENTRICITY":0.0002153,"INCLINATION":87.9203,"RA_OF_ASC_NODE":284.1455,"ARG_OF_PERICENTER":80.6282,"MEAN_ANOMALY":279.5095,"EPHEMERIS_TYPE":0,"CLASSIFICATION_TYPE":"U","NORAD_CAT_ID":56054,"ELEMENT_SET_NO":999,"REV_AT_EPOCH":13163,"BSTAR":0.00015541,"MEAN_MOTION_DOT":7.7e-7,"MEAN_MOTION_DDOT":0},{"OBJECT_NAME":"ONEWEB-0553","OBJECT_ID":"2023-043K","EPOCH":"2025-11-28T02:15:19.111680","MEAN_MOTION":13.16593966,"ECCENTRICITY":0.0001479,"INCLINATION":87.9035,"RA_OF_ASC_NODE":268.8177,"ARG_OF_PERICENTER":76.5189,"MEAN_ANOMALY":283.6107,"EPHEMERIS_TYPE":0,"CLASSIFICATION_TYPE":"U","NORAD_CAT_ID":56055,"ELEMENT_SET_NO":999,"REV_AT_EPOCH":13251,"BSTAR":-5.4556e-5,"MEAN_MOTION_DOT":-8.0e-8,"MEAN_MOTION_DDOT":0},{"OBJECT_NAME":"ONEWEB-0554","OBJECT_ID":"2023-043L","EPOCH":"2025-11-28T01:57:05.337792","MEAN_MOTION":13.16595561,"ECCENTRICITY":0.0001758,"INCLINATION":87.9025,"RA_OF_ASC_NODE":268.8363,"ARG_OF_PERICENTER":85.6223,"MEAN_ANOMALY":274.5108,"EPHEMERIS_TYPE":0,"CLASSIFICATION_TYPE":"U","NORAD_CAT_ID":56056,"ELEMENT_SET_NO":999,"REV_AT_EPOCH":13249,"BSTAR":5.7318e-5,"MEAN_MOTION_DOT":3.5e-7,"MEAN_MOTION_DDOT":0},{"OBJECT_NAME":"ONEWEB-0555","OBJECT_ID":"2023-043M","EPOCH":"2025-11-27T21:23:29.787072","MEAN_MOTION":13.16593155,"ECCENTRICITY":0.0001292,"INCLINATION":87.9034,"RA_OF_ASC_NODE":268.8531,"ARG_OF_PERICENTER":72.3491,"MEAN_ANOMALY":287.7781,"EPHEMERIS_TYPE":0,"CLASSIFICATION_TYPE":"U","NORAD_CAT_ID":56057,"ELEMENT_SET_NO":999,"REV_AT_EPOCH":13247,"BSTAR":0.00011368,"MEAN_MOTION_DOT":5.6e-7,"MEAN_MOTION_DDOT":0},{"OBJECT_NAME":"ONEWEB-0557","OBJECT_ID":"2023-043N","EPOCH":"2025-11-28T01:22:53.413824","MEAN_MOTION":13.16595197,"ECCENTRICITY":0.0001314,"INCLINATION":87.903,"RA_OF_ASC_NODE":268.8333,"ARG_OF_PERICENTER":122.1296,"MEAN_ANOMALY":237.9963,"EPHEMERIS_TYPE":0,"CLASSIFICATION_TYPE":"U","NORAD_CAT_ID":56058,"ELEMENT_SET_NO":999,"REV_AT_EPOCH":13249,"BSTAR":0.00026931,"MEAN_MOTION_DOT":1.16e-6,"MEAN_MOTION_DDOT":0},{"OBJECT_NAME":"ONEWEB-0558","OBJECT_ID":"2023-043P","EPOCH":"2025-11-28T04:00:41.094720","MEAN_MOTION":13.2182622,"ECCENTRICITY":0.0002272,"INCLINATION":87.9203,"RA_OF_ASC_NODE":284.0802,"ARG_OF_PERICENTER":69.8355,"MEAN_ANOMALY":290.3024,"EPHEMERIS_TYPE":0,"CLASSIFICATION_TYPE":"U","NORAD_CAT_ID":56059,"ELEMENT_SET_NO":999,"REV_AT_EPOCH":13168,"BSTAR":5.1555e-5,"MEAN_MOTION_DOT":3.4e-7,"MEAN_MOTION_DDOT":0},{"OBJECT_NAME":"ONEWEB-0559","OBJECT_ID":"2023-043Q","EPOCH":"2025-11-28T03:44:07.099872","MEAN_MOTION":13.2182635,"ECCENTRICITY":0.0002182,"INCLINATION":87.9204,"RA_OF_ASC_NODE":284.0757,"ARG_OF_PERICENTER":80.2394,"MEAN_ANOMALY":279.8987,"EPHEMERIS_TYPE":0,"CLASSIFICATION_TYPE":"U","NORAD_CAT_ID":56060,"ELEMENT_SET_NO":999,"REV_AT_EPOCH":13169,"BSTAR":2.2436e-5,"MEAN_MOTION_DOT":2.2e-7,"MEAN_MOTION_DDOT":0},{"OBJECT_NAME":"ONEWEB-0566","OBJECT_ID":"2023-043R","EPOCH":"2025-11-28T03:34:36.338016","MEAN_MOTION":13.21824568,"ECCENTRICITY":0.0002229,"INCLINATION":87.9202,"RA_OF_ASC_NODE":284.0747,"ARG_OF_PERICENTER":75.5497,"MEAN_ANOMALY":284.5885,"EPHEMERIS_TYPE":0,"CLASSIFICATION_TYPE":"U","NORAD_CAT_ID":56061,"ELEMENT_SET_NO":999,"REV_AT_EPOCH":13167,"BSTAR":-0.00062247,"MEAN_MOTION_DOT":-2.44e-6,"MEAN_MOTION_DDOT":0}]
